ATLAS CENTAUR 2         
1 00694U 63047A   25343.47099578  .00004498  00000+0  54237-3 0  9993
2 00694  30.3561 339.7165 0549020   5.3751 355.2453 14.11731556118869
THOR AGENA D R/B        
1 00733U 64002A   25343.79176698  .00000417  00000+0  16577-3 0  9995
2 00733  99.1217 347.2511 0033225 158.6934 201.5641 14.33956977225415
SL-3 R/B                
1 00877U 64053B   25343.69797781  .00000646  00000+0  14992-3 0  9994
2 00877  65.0768 235.0495 0073605 321.3575  38.2270 14.61272070253643
SL-8 R/B                
1 02802U 67045B   25343.74765120  .00000717  00000+0  20588-3 0  9993
2 02802  74.0096 156.0499 0064453 186.0858 173.9525 14.45532252 76022
SL-8 R/B                
1 03230U 68040B   25343.71067772  .00006104  00000+0  45936-3 0  9990
2 03230  74.0303 137.4413 0025260 339.6083  20.4093 15.02491143 76491
OAO 2                   
1 03597U 68110A   25343.61430870  .00000560  00000+0  15618-3 0  9990
2 03597  34.9943  48.1071 0005664 200.8688 159.1772 14.47241495  6045
ISIS 1                  
1 03669U 69009A   25343.78490512  .00000350  00000+0  25448-3 0  9994
2 03669  88.4485 165.1197 1706850 270.6702  69.9999 11.30352694338373
SERT 2                  
1 04327U 70009A   25343.78139204  .00000065  00000+0  14591-3 0  9996
2 04327  99.2645 286.8471 0005487  41.1098 348.4919 13.58717005767685
SL-3 R/B                
1 05118U 71028B   25343.77860308  .00036944  00000+0  56080-3 0  9996
2 05118  81.2374 162.4685 0019350 251.1693 108.7458 15.54195207974674
ASTEX 1                 
1 05560U 71089A   25343.80783426  .00001016  00000+0  25892-3 0  9992
2 05560  92.7136 122.6705 0016761  35.1863 325.0446 14.50637553849279
SL-8 R/B                
1 05730U 71119B   25343.76036809  .00018048  00000+0  94082-3 0  9996
2 05730  73.8888 343.5444 0559684 328.4094  28.4546 14.35619194642579
OAO 3 (COPERNICUS)      
1 06153U 72065A   25343.68354932  .00000763  00000+0  16126-3 0  9996
2 06153  35.0056  90.0751 0006183 148.5035 355.2460 14.59902479833034
