CCSDS_OMM_VERS = 2.0
CREATION_DATE  = 
ORIGINATOR     = 

OBJECT_NAME    = ATLAS CENTAUR 2
OBJECT_ID      = 1963-047A
CENTER_NAME    = EARTH
REF_FRAME      = TEME
TIME_SYSTEM    = UTC
MEAN_ELEMENT_THEORY = SGP/SGP4

EPOCH          = 2025-12-09T11:18:14.035392
MEAN_MOTION    = 14.11731556
ECCENTRICITY   = .054902
INCLINATION    = 30.3561
RA_OF_ASC_NODE = 339.7165
ARG_OF_PERICENTER = 5.3751
MEAN_ANOMALY   = 355.2453

EPHEMERIS_TYPE = 0
CLASSIFICATION_TYPE = U
NORAD_CAT_ID   = 694
ELEMENT_SET_NO = 999
REV_AT_EPOCH   = 11886
BSTAR          = .54237E-3
MEAN_MOTION_DOT = .4498E-4
MEAN_MOTION_DDOT = 0

CCSDS_OMM_VERS = 2.0
CREATION_DATE  = 
ORIGINATOR     = 

OBJECT_NAME    = THOR AGENA D R/B
OBJECT_ID      = 1964-002A
CENTER_NAME    = EARTH
REF_FRAME      = TEME
TIME_SYSTEM    = UTC
MEAN_ELEMENT_THEORY = SGP/SGP4

EPOCH          = 2025-12-09T19:00:08.667072
MEAN_MOTION    = 14.33956977
ECCENTRICITY   = .0033225
INCLINATION    = 99.1217
RA_OF_ASC_NODE = 347.2511
ARG_OF_PERICENTER = 158.6934
MEAN_ANOMALY   = 201.5641

EPHEMERIS_TYPE = 0
CLASSIFICATION_TYPE = U
NORAD_CAT_ID   = 733
ELEMENT_SET_NO = 999
REV_AT_EPOCH   = 22541
BSTAR          = .16577E-3
MEAN_MOTION_DOT = .417E-5
MEAN_MOTION_DDOT = 0

CCSDS_OMM_VERS = 2.0
CREATION_DATE  = 
ORIGINATOR     = 

OBJECT_NAME    = SL-3 R/B
OBJECT_ID      = 1964-053B
CENTER_NAME    = EARTH
REF_FRAME      = TEME
TIME_SYSTEM    = UTC
MEAN_ELEMENT_THEORY = SGP/SGP4

EPOCH          = 2025-12-09T16:45:05.282784
MEAN_MOTION    = 14.61272070
ECCENTRICITY   = .0073605
INCLINATION    = 65.0768
RA_OF_ASC_NODE = 235.0495
ARG_OF_PERICENTER = 321.3575
MEAN_ANOMALY   = 38.2270

EPHEMERIS_TYPE = 0
CLASSIFICATION_TYPE = U
NORAD_CAT_ID   = 877
ELEMENT_SET_NO = 999
REV_AT_EPOCH   = 25364
BSTAR          = .14992E-3
MEAN_MOTION_DOT = .646E-5
MEAN_MOTION_DDOT = 0

CCSDS_OMM_VERS = 2.0
CREATION_DATE  = 
ORIGINATOR     = 

OBJECT_NAME    = SL-8 R/B
OBJECT_ID      = 1967-045B
CENTER_NAME    = EARTH
REF_FRAME      = TEME
TIME_SYSTEM    = UTC
MEAN_ELEMENT_THEORY = SGP/SGP4

EPOCH          = 2025-12-09T17:56:37.063680
MEAN_MOTION    = 14.45532252
ECCENTRICITY   = .0064453
INCLINATION    = 74.0096
RA_OF_ASC_NODE = 156.0499
ARG_OF_PERICENTER = 186.0858
MEAN_ANOMALY   = 173.9525

EPHEMERIS_TYPE = 0
CLASSIFICATION_TYPE = U
NORAD_CAT_ID   = 2802
ELEMENT_SET_NO = 999
REV_AT_EPOCH   = 7602
BSTAR          = .20588E-3
MEAN_MOTION_DOT = .717E-5
MEAN_MOTION_DDOT = 0

CCSDS_OMM_VERS = 2.0
CREATION_DATE  = 
ORIGINATOR     = 

OBJECT_NAME    = SL-8 R/B
OBJECT_ID      = 1968-040B
CENTER_NAME    = EARTH
REF_FRAME      = TEME
TIME_SYSTEM    = UTC
MEAN_ELEMENT_THEORY = SGP/SGP4

EPOCH          = 2025-12-09T17:03:22.555008
MEAN_MOTION    = 15.02491143
ECCENTRICITY   = .002526
INCLINATION    = 74.0303
RA_OF_ASC_NODE = 137.4413
ARG_OF_PERICENTER = 339.6083
MEAN_ANOMALY   = 20.4093

EPHEMERIS_TYPE = 0
CLASSIFICATION_TYPE = U
NORAD_CAT_ID   = 3230
ELEMENT_SET_NO = 999
REV_AT_EPOCH   = 7649
BSTAR          = .45936E-3
MEAN_MOTION_DOT = .6104E-4
MEAN_MOTION_DDOT = 0

CCSDS_OMM_VERS = 2.0
CREATION_DATE  = 
ORIGINATOR     = 

OBJECT_NAME    = OAO 2
OBJECT_ID      = 1968-110A
CENTER_NAME    = EARTH
REF_FRAME      = TEME
TIME_SYSTEM    = UTC
MEAN_ELEMENT_THEORY = SGP/SGP4

EPOCH          = 2025-12-09T14:44:36.271680
MEAN_MOTION    = 14.47241495
ECCENTRICITY   = .0005664
INCLINATION    = 34.9943
RA_OF_ASC_NODE = 48.1071
ARG_OF_PERICENTER = 200.8688
MEAN_ANOMALY   = 159.1772

EPHEMERIS_TYPE = 0
CLASSIFICATION_TYPE = U
NORAD_CAT_ID   = 3597
ELEMENT_SET_NO = 999
REV_AT_EPOCH   = 604
BSTAR          = .15618E-3
MEAN_MOTION_DOT = .56E-5
MEAN_MOTION_DDOT = 0

CCSDS_OMM_VERS = 2.0
CREATION_DATE  = 
ORIGINATOR     = 

OBJECT_NAME    = ISIS 1
OBJECT_ID      = 1969-009A
CENTER_NAME    = EARTH
REF_FRAME      = TEME
TIME_SYSTEM    = UTC
MEAN_ELEMENT_THEORY = SGP/SGP4

EPOCH          = 2025-12-09T18:50:15.802368
MEAN_MOTION    = 11.30352694
ECCENTRICITY   = .170685
INCLINATION    = 88.4485
RA_OF_ASC_NODE = 165.1197
ARG_OF_PERICENTER = 270.6702
MEAN_ANOMALY   = 69.9999

EPHEMERIS_TYPE = 0
CLASSIFICATION_TYPE = U
NORAD_CAT_ID   = 3669
ELEMENT_SET_NO = 999
REV_AT_EPOCH   = 33837
BSTAR          = .25448E-3
MEAN_MOTION_DOT = .35E-5
MEAN_MOTION_DDOT = 0

CCSDS_OMM_VERS = 2.0
CREATION_DATE  = 
ORIGINATOR     = 

OBJECT_NAME    = SERT 2
OBJECT_ID      = 1970-009A
CENTER_NAME    = EARTH
REF_FRAME      = TEME
TIME_SYSTEM    = UTC
MEAN_ELEMENT_THEORY = SGP/SGP4

EPOCH          = 2025-12-09T18:45:12.272256
MEAN_MOTION    = 13.58717005
ECCENTRICITY   = .0005487
INCLINATION    = 99.2645
RA_OF_ASC_NODE = 286.8471
ARG_OF_PERICENTER = 41.1098
MEAN_ANOMALY   = 348.4919

EPHEMERIS_TYPE = 0
CLASSIFICATION_TYPE = U
NORAD_CAT_ID   = 4327
ELEMENT_SET_NO = 999
REV_AT_EPOCH   = 76768
BSTAR          = .14591E-3
MEAN_MOTION_DOT = .65E-6
MEAN_MOTION_DDOT = 0

CCSDS_OMM_VERS = 2.0
CREATION_DATE  = 
ORIGINATOR     = 

OBJECT_NAME    = SL-3 R/B
OBJECT_ID      = 1971-028B
CENTER_NAME    = EARTH
REF_FRAME      = TEME
TIME_SYSTEM    = UTC
MEAN_ELEMENT_THEORY = SGP/SGP4

EPOCH          = 2025-12-09T18:41:11.306112
MEAN_MOTION    = 15.54195207
ECCENTRICITY   = .001935
INCLINATION    = 81.2374
RA_OF_ASC_NODE = 162.4685
ARG_OF_PERICENTER = 251.1693
MEAN_ANOMALY   = 108.7458

EPHEMERIS_TYPE = 0
CLASSIFICATION_TYPE = U
NORAD_CAT_ID   = 5118
ELEMENT_SET_NO = 999
REV_AT_EPOCH   = 97467
BSTAR          = .5608E-3
MEAN_MOTION_DOT = .36944E-3
MEAN_MOTION_DDOT = 0

CCSDS_OMM_VERS = 2.0
CREATION_DATE  = 
ORIGINATOR     = 

OBJECT_NAME    = ASTEX 1
OBJECT_ID      = 1971-089A
CENTER_NAME    = EARTH
REF_FRAME      = TEME
TIME_SYSTEM    = UTC
MEAN_ELEMENT_THEORY = SGP/SGP4

EPOCH          = 2025-12-09T19:23:16.880064
MEAN_MOTION    = 14.50637553
ECCENTRICITY   = .0016761
INCLINATION    = 92.7136
RA_OF_ASC_NODE = 122.6705
ARG_OF_PERICENTER = 35.1863
MEAN_ANOMALY   = 325.0446

EPHEMERIS_TYPE = 0
CLASSIFICATION_TYPE = U
NORAD_CAT_ID   = 5560
ELEMENT_SET_NO = 999
REV_AT_EPOCH   = 84927
BSTAR          = .25892E-3
MEAN_MOTION_DOT = .1016E-4
MEAN_MOTION_DDOT = 0

CCSDS_OMM_VERS = 2.0
CREATION_DATE  = 
ORIGINATOR     = 

OBJECT_NAME    = SL-8 R/B
OBJECT_ID      = 1971-119B
CENTER_NAME    = EARTH
REF_FRAME      = TEME
TIME_SYSTEM    = UTC
MEAN_ELEMENT_THEORY = SGP/SGP4

EPOCH          = 2025-12-09T18:14:55.802976
MEAN_MOTION    = 14.35619194
ECCENTRICITY   = .0559684
INCLINATION    = 73.8888
RA_OF_ASC_NODE = 343.5444
ARG_OF_PERICENTER = 328.4094
MEAN_ANOMALY   = 28.4546

EPHEMERIS_TYPE = 0
CLASSIFICATION_TYPE = U
NORAD_CAT_ID   = 5730
ELEMENT_SET_NO = 999
REV_AT_EPOCH   = 64257
BSTAR          = .94082E-3
MEAN_MOTION_DOT = .18048E-3
MEAN_MOTION_DDOT = 0

CCSDS_OMM_VERS = 2.0
CREATION_DATE  = 
ORIGINATOR     = 

OBJECT_NAME    = OAO 3 (COPERNICUS)
OBJECT_ID      = 1972-065A
CENTER_NAME    = EARTH
REF_FRAME      = TEME
TIME_SYSTEM    = UTC
MEAN_ELEMENT_THEORY = SGP/SGP4

EPOCH          = 2025-12-09T16:24:18.661248
MEAN_MOTION    = 14.59902479
ECCENTRICITY   = .0006183
INCLINATION    = 35.0056
RA_OF_ASC_NODE = 90.0751
ARG_OF_PERICENTER = 148.5035
MEAN_ANOMALY   = 355.2460

EPHEMERIS_TYPE = 0
CLASSIFICATION_TYPE = U
NORAD_CAT_ID   = 6153
ELEMENT_SET_NO = 999
REV_AT_EPOCH   = 83303
BSTAR          = .16126E-3
MEAN_MOTION_DOT = .763E-5
MEAN_MOTION_DDOT = 0

